ONEWEB-0461             
1 51649U 22012AD  24138.80407753  .00000056  00000+0  11231-3 0  9995
2 51649  87.9167 157.2050 0001994  88.4506 271.6854 13.17649946113759
ONEWEB-0463             
1 51650U 22012AE  24138.48294307  .00000090  00000+0  19910-3 0  9990
2 51650  87.9171 157.3142 0001945  90.4176 269.7178 13.17648980113496
ONEWEB-0464             
1 51651U 22012AF  24138.89402994  .00000688  00000+0  19357-2 0  9996
2 51651  87.8968 187.4042 0002418 103.4555 256.6842 13.10373175109756
ONEWEB-0468             
1 51652U 22012AG  24138.90066708  .00000539  00000+0  15065-2 0  9995
2 51652  87.8964 187.3958 0002183  98.9801 261.1574 13.10372046109736
ONEWEB-0473             
1 51653U 22012AH  24138.88572705  .00000587  00000+0  16438-2 0  9990
2 51653  87.8969 187.4021 0002091  99.9799 260.1564 13.10376476109738
ONEWEB-0474             
1 51654U 22012AJ  24138.49563214  .00000371  00000+0  10273-2 0  9995
2 51654  87.8961 187.4787 0002151 104.0595 256.0772 13.10377118109671
ONEWEB-0475             
1 51655U 22012AK  24138.79775537  .00000109  00000+0  24787-3 0  9997
2 51655  87.9168 157.2310 0002013 105.0359 255.0995 13.17650965113554
ONEWEB-0490             
1 54113U 22138A   24138.91960191  .00000112  00000+0  24679-3 0  9998
2 54113  87.9127  96.2698 0002140  87.9390 272.1987 13.19726253 76551
